SL-8 R/B                
1 11574U 79089B   26117.85146157  .00000241  00000+0  80611-4 0  9991
2 11574  74.0708   0.0403 0015557 163.2709 196.8964 14.42380294443195
SL-14 R/B               
1 11672U 80005B   26117.85411340  .00000628  00000+0  60929-4 0  9998
2 11672  82.5128 260.5829 0015734   5.2153 354.9227 14.90984212483819
SL-8 R/B                
1 12139U 81003B   26117.84028802  .00015956  00000+0  39731-3 0  9998
2 12139  82.9360 244.4978 0255474   7.8751 352.6370 15.12894272322104
SL-3 R/B                
1 12465U 81046B   26117.82328032  .00012889  00000+0  28832-3 0  9995
2 12465  81.2313 230.6846 0018554 205.8154 154.2166 15.43162275446000
SL-3 R/B                
1 12904U 81103B   26117.82810047  .00004420  00000+0  19272-3 0  9999
2 12904  81.1581 155.7764 0014321 119.3806 240.8857 15.21871218980700
SL-3 R/B                
1 13068U 82013B   26117.81759170  .00005253  00000+0  22466-3 0  9994
2 13068  81.1713 103.1603 0022434  17.8992 342.3024 15.22417640411822
SL-3 R/B                
1 13154U 82039B   26117.68647338  .00001797  00000+0  10724-3 0  9998
2 13154  81.1477 159.4402 0028600 157.4813 202.7675 15.10307935389030
SL-3 R/B                
1 13403U 82079B   26117.80856954  .00005522  00000+0  21634-3 0  9991
2 13403  81.1439 135.0561 0024039   3.3650 356.7741 15.25335604385187
SL-14 R/B               
1 13553U 82092B   26117.45065976  .00000481  00000+0  51086-4 0  9993
2 13553  82.5654  95.7731 0021428 136.1428 342.5496 14.86706828336176
SL-3 R/B                
1 13819U 83010B   26117.78510458  .00014581  00000+0  27904-3 0  9992
2 13819  81.1009 301.9764 0015272 233.9446 126.0386 15.47795811365537
SL-3 R/B                
1 14208U 83075B   26117.77689970  .00012647  00000+0  32136-3 0  9995
2 14208  97.6124 124.2570 0022689  57.5137 302.8297 15.39512829337708
COSMOS 1536             
1 14699U 84013A   26117.82750742  .00008019  00000+0  32390-3 0  9994
2 14699  82.5452  58.9709 0016206 107.2377 253.0635 15.24481281280108
SL-14 R/B               
1 14820U 84027B   26117.64668122  .00000423  00000+0  45481-4 0  9992
2 14820  82.5444 199.1065 0018353 166.6565 193.5141 14.86023978254902
SL-8 R/B                
1 15483U 85006B   26117.87184721  .00000222  00000+0  82187-4 0  9990
2 15483  74.0451 170.6519 0017206  71.7341 101.6786 14.37812761161098
SL-12 R/B(2)            
1 15772U 85042D   26117.86950683  .00000060  00000+0  48407-4 0  9995
2 15772  71.1094 343.8275 0033544  46.7823  34.2798 14.21995653121380
SL-14 R/B               
1 15945U 85069B   26117.88570444  .00000444  00000+0  47317-4 0  9996
2 15945  82.5272 338.6825 0019631  33.4472 326.7980 14.86478863180144
SL-16 R/B               
1 16182U 85097B   26117.84985105 -.00000207  00000+0 -79532-4 0  9994
2 16182  71.0045  37.0538 0007970 198.5602 219.4357 14.16605677 94194
