[{"OBJECT_NAME":"SL-8 R/B","OBJECT_ID":"1979-089B","EPOCH":"2026-04-27T20:26:06.279648","MEAN_MOTION":14.42380294,"ECCENTRICITY":0.0015557,"INCLINATION":74.0708,"RA_OF_ASC_NODE":0.0403,"ARG_OF_PERICENTER":163.2709,"MEAN_ANOMALY":196.8964,"EPHEMERIS_TYPE":0,"CLASSIFICATION_TYPE":"U","NORAD_CAT_ID":11574,"ELEMENT_SET_NO":999,"REV_AT_EPOCH":44319,"BSTAR":8.0611e-5,"MEAN_MOTION_DOT":2.41e-6,"MEAN_MOTION_DDOT":0},{"OBJECT_NAME":"SL-14 R/B","OBJECT_ID":"1980-005B","EPOCH":"2026-04-27T20:29:55.397760","MEAN_MOTION":14.90984212,"ECCENTRICITY":0.0015734,"INCLINATION":82.5128,"RA_OF_ASC_NODE":260.5829,"ARG_OF_PERICENTER":5.2153,"MEAN_ANOMALY":354.9227,"EPHEMERIS_TYPE":0,"CLASSIFICATION_TYPE":"U","NORAD_CAT_ID":11672,"ELEMENT_SET_NO":999,"REV_AT_EPOCH":48381,"BSTAR":6.0929e-5,"MEAN_MOTION_DOT":6.28e-6,"MEAN_MOTION_DDOT":0},{"OBJECT_NAME":"SL-8 R/B","OBJECT_ID":"1981-003B","EPOCH":"2026-04-27T20:10:00.884928","MEAN_MOTION":15.12894272,"ECCENTRICITY":0.0255474,"INCLINATION":82.936,"RA_OF_ASC_NODE":244.4978,"ARG_OF_PERICENTER":7.8751,"MEAN_ANOMALY":352.637,"EPHEMERIS_TYPE":0,"CLASSIFICATION_TYPE":"U","NORAD_CAT_ID":12139,"ELEMENT_SET_NO":999,"REV_AT_EPOCH":32210,"BSTAR":0.00039731,"MEAN_MOTION_DOT":0.00015956,"MEAN_MOTION_DDOT":0},{"OBJECT_NAME":"SL-3 R/B","OBJECT_ID":"1981-046B","EPOCH":"2026-04-27T19:45:31.419648","MEAN_MOTION":15.43162275,"ECCENTRICITY":0.0018554,"INCLINATION":81.2313,"RA_OF_ASC_NODE":230.6846,"ARG_OF_PERICENTER":205.8154,"MEAN_ANOMALY":154.2166,"EPHEMERIS_TYPE":0,"CLASSIFICATION_TYPE":"U","NORAD_CAT_ID":12465,"ELEMENT_SET_NO":999,"REV_AT_EPOCH":44600,"BSTAR":0.00028832,"MEAN_MOTION_DOT":0.00012889,"MEAN_MOTION_DDOT":0},{"OBJECT_NAME":"SL-3 R/B","OBJECT_ID":"1981-103B","EPOCH":"2026-04-27T19:52:27.880608","MEAN_MOTION":15.21871218,"ECCENTRICITY":0.0014321,"INCLINATION":81.1581,"RA_OF_ASC_NODE":155.7764,"ARG_OF_PERICENTER":119.3806,"MEAN_ANOMALY":240.8857,"EPHEMERIS_TYPE":0,"CLASSIFICATION_TYPE":"U","NORAD_CAT_ID":12904,"ELEMENT_SET_NO":999,"REV_AT_EPOCH":98070,"BSTAR":0.00019272,"MEAN_MOTION_DOT":4.42e-5,"MEAN_MOTION_DDOT":0},{"OBJECT_NAME":"SL-3 R/B","OBJECT_ID":"1982-013B","EPOCH":"2026-04-27T19:37:19.922880","MEAN_MOTION":15.2241764,"ECCENTRICITY":0.0022434,"INCLINATION":81.1713,"RA_OF_ASC_NODE":103.1603,"ARG_OF_PERICENTER":17.8992,"MEAN_ANOMALY":342.3024,"EPHEMERIS_TYPE":0,"CLASSIFICATION_TYPE":"U","NORAD_CAT_ID":13068,"ELEMENT_SET_NO":999,"REV_AT_EPOCH":41182,"BSTAR":0.00022466,"MEAN_MOTION_DOT":5.253e-5,"MEAN_MOTION_DDOT":0},{"OBJECT_NAME":"SL-3 R/B","OBJECT_ID":"1982-039B","EPOCH":"2026-04-27T16:28:31.300032","MEAN_MOTION":15.10307935,"ECCENTRICITY":0.00286,"INCLINATION":81.1477,"RA_OF_ASC_NODE":159.4402,"ARG_OF_PERICENTER":157.4813,"MEAN_ANOMALY":202.7675,"EPHEMERIS_TYPE":0,"CLASSIFICATION_TYPE":"U","NORAD_CAT_ID":13154,"ELEMENT_SET_NO":999,"REV_AT_EPOCH":38903,"BSTAR":0.00010724,"MEAN_MOTION_DOT":1.797e-5,"MEAN_MOTION_DDOT":0},{"OBJECT_NAME":"SL-3 R/B","OBJECT_ID":"1982-079B","EPOCH":"2026-04-27T19:24:20.408256","MEAN_MOTION":15.25335604,"ECCENTRICITY":0.0024039,"INCLINATION":81.1439,"RA_OF_ASC_NODE":135.0561,"ARG_OF_PERICENTER":3.365,"MEAN_ANOMALY":356.7741,"EPHEMERIS_TYPE":0,"CLASSIFICATION_TYPE":"U","NORAD_CAT_ID":13403,"ELEMENT_SET_NO":999,"REV_AT_EPOCH":38518,"BSTAR":0.00021634,"MEAN_MOTION_DOT":5.522e-5,"MEAN_MOTION_DDOT":0},{"OBJECT_NAME":"SL-14 R/B","OBJECT_ID":"1982-092B","EPOCH":"2026-04-27T10:48:57.003264","MEAN_MOTION":14.86706828,"ECCENTRICITY":0.0021428,"INCLINATION":82.5654,"RA_OF_ASC_NODE":95.7731,"ARG_OF_PERICENTER":136.1428,"MEAN_ANOMALY":342.5496,"EPHEMERIS_TYPE":0,"CLASSIFICATION_TYPE":"U","NORAD_CAT_ID":13553,"ELEMENT_SET_NO":999,"REV_AT_EPOCH":33617,"BSTAR":5.1086e-5,"MEAN_MOTION_DOT":4.81e-6,"MEAN_MOTION_DDOT":0},{"OBJECT_NAME":"SL-3 R/B","OBJECT_ID":"1983-010B","EPOCH":"2026-04-27T18:50:33.035712","MEAN_MOTION":15.47795811,"ECCENTRICITY":0.0015272,"INCLINATION":81.1009,"RA_OF_ASC_NODE":301.9764,"ARG_OF_PERICENTER":233.9446,"MEAN_ANOMALY":126.0386,"EPHEMERIS_TYPE":0,"CLASSIFICATION_TYPE":"U","NORAD_CAT_ID":13819,"ELEMENT_SET_NO":999,"REV_AT_EPOCH":36553,"BSTAR":0.00027904,"MEAN_MOTION_DOT":0.00014581,"MEAN_MOTION_DDOT":0},{"OBJECT_NAME":"SL-3 R/B","OBJECT_ID":"1983-075B","EPOCH":"2026-04-27T18:38:44.134080","MEAN_MOTION":15.39512829,"ECCENTRICITY":0.0022689,"INCLINATION":97.6124,"RA_OF_ASC_NODE":124.257,"ARG_OF_PERICENTER":57.5137,"MEAN_ANOMALY":302.8297,"EPHEMERIS_TYPE":0,"CLASSIFICATION_TYPE":"U","NORAD_CAT_ID":14208,"ELEMENT_SET_NO":999,"REV_AT_EPOCH":33770,"BSTAR":0.00032136,"MEAN_MOTION_DOT":0.00012647,"MEAN_MOTION_DDOT":0},{"OBJECT_NAME":"COSMOS 1536","OBJECT_ID":"1984-013A","EPOCH":"2026-04-27T19:51:36.641088","MEAN_MOTION":15.24481281,"ECCENTRICITY":0.0016206,"INCLINATION":82.5452,"RA_OF_ASC_NODE":58.9709,"ARG_OF_PERICENTER":107.2377,"MEAN_ANOMALY":253.0635,"EPHEMERIS_TYPE":0,"CLASSIFICATION_TYPE":"U","NORAD_CAT_ID":14699,"ELEMENT_SET_NO":999,"REV_AT_EPOCH":28010,"BSTAR":0.0003239,"MEAN_MOTION_DOT":8.019e-5,"MEAN_MOTION_DDOT":0},{"OBJECT_NAME":"SL-14 R/B","OBJECT_ID":"1984-027B","EPOCH":"2026-04-27T15:31:13.257408","MEAN_MOTION":14.86023978,"ECCENTRICITY":0.0018353,"INCLINATION":82.5444,"RA_OF_ASC_NODE":199.1065,"ARG_OF_PERICENTER":166.6565,"MEAN_ANOMALY":193.5141,"EPHEMERIS_TYPE":0,"CLASSIFICATION_TYPE":"U","NORAD_CAT_ID":14820,"ELEMENT_SET_NO":999,"REV_AT_EPOCH":25490,"BSTAR":4.5481e-5,"MEAN_MOTION_DOT":4.23e-6,"MEAN_MOTION_DDOT":0},{"OBJECT_NAME":"SL-8 R/B","OBJECT_ID":"1985-006B","EPOCH":"2026-04-27T20:55:27.598944","MEAN_MOTION":14.37812761,"ECCENTRICITY":0.0017206,"INCLINATION":74.0451,"RA_OF_ASC_NODE":170.6519,"ARG_OF_PERICENTER":71.7341,"MEAN_ANOMALY":101.6786,"EPHEMERIS_TYPE":0,"CLASSIFICATION_TYPE":"U","NORAD_CAT_ID":15483,"ELEMENT_SET_NO":999,"REV_AT_EPOCH":16109,"BSTAR":8.2187e-5,"MEAN_MOTION_DOT":2.22e-6,"MEAN_MOTION_DDOT":0},{"OBJECT_NAME":"SL-12 R/B(2)","OBJECT_ID":"1985-042D","EPOCH":"2026-04-27T20:52:05.390112","MEAN_MOTION":14.21995653,"ECCENTRICITY":0.0033544,"INCLINATION":71.1094,"RA_OF_ASC_NODE":343.8275,"ARG_OF_PERICENTER":46.7823,"MEAN_ANOMALY":34.2798,"EPHEMERIS_TYPE":0,"CLASSIFICATION_TYPE":"U","NORAD_CAT_ID":15772,"ELEMENT_SET_NO":999,"REV_AT_EPOCH":12138,"BSTAR":4.8407e-5,"MEAN_MOTION_DOT":6.0e-7,"MEAN_MOTION_DDOT":0},{"OBJECT_NAME":"SL-14 R/B","OBJECT_ID":"1985-069B","EPOCH":"2026-04-27T21:15:24.863616","MEAN_MOTION":14.86478863,"ECCENTRICITY":0.0019631,"INCLINATION":82.5272,"RA_OF_ASC_NODE":338.6825,"ARG_OF_PERICENTER":33.4472,"MEAN_ANOMALY":326.798,"EPHEMERIS_TYPE":0,"CLASSIFICATION_TYPE":"U","NORAD_CAT_ID":15945,"ELEMENT_SET_NO":999,"REV_AT_EPOCH":18014,"BSTAR":4.7317e-5,"MEAN_MOTION_DOT":4.44e-6,"MEAN_MOTION_DDOT":0},{"OBJECT_NAME":"SL-16 R/B","OBJECT_ID":"1985-097B","EPOCH":"2026-04-27T20:23:47.130720","MEAN_MOTION":14.16605677,"ECCENTRICITY":0.000797,"INCLINATION":71.0045,"RA_OF_ASC_NODE":37.0538,"ARG_OF_PERICENTER":198.5602,"MEAN_ANOMALY":219.4357,"EPHEMERIS_TYPE":0,"CLASSIFICATION_TYPE":"U","NORAD_CAT_ID":16182,"ELEMENT_SET_NO":999,"REV_AT_EPOCH":9419,"BSTAR":-7.9532e-5,"MEAN_MOTION_DOT":-2.07e-6,"MEAN_MOTION_DDOT":0}]
